[
  {
    "name": "Tracey Mason",
    "phone": 2769671598,
    "address": "508 Pershing Loop",
    "city": "Dunbar",
    "state": "New Jersey",
    "zip": 7051
  },
  {
    "name": "Bradley Chapman",
    "phone": 5461768427,
    "address": "574 Lancaster Avenue",
    "city": "Bancroft",
    "state": "Nevada",
    "zip": 7036
  },
  {
    "name": "Bird Fitzgerald",
    "phone": 4539239704,
    "address": "956 Arkansas Drive",
    "city": "Avalon",
    "state": "New Hampshire",
    "zip": 2331
  },
  {
    "name": "Dudley Wynn",
    "phone": 5598840613,
    "address": "203 Randolph Street",
    "city": "Chautauqua",
    "state": "Rhode Island",
    "zip": 2544
  },
  {
    "name": "Torres Keith",
    "phone": 1087718715,
    "address": "856 Kent Street",
    "city": "Summerset",
    "state": "South Dakota",
    "zip": 6944
  },
  {
    "name": "Charlotte Conner",
    "phone": 9843549251,
    "address": "991 Veranda Place",
    "city": "Berwind",
    "state": "Louisiana",
    "zip": 9421
  },
  {
    "name": "Cecile Patton",
    "phone": 2384232918,
    "address": "741 Moultrie Street",
    "city": "Adelino",
    "state": "Alabama",
    "zip": 3075
  },
  {
    "name": "Ruiz Roman",
    "phone": 6995183504,
    "address": "766 Lyme Avenue",
    "city": "Grayhawk",
    "state": "Puerto Rico",
    "zip": 369
  },
  {
    "name": "Alejandra Shields",
    "phone": 4306294852,
    "address": "662 Brooklyn Road",
    "city": "Walker",
    "state": "North Dakota",
    "zip": 1578
  },
  {
    "name": "Stacie Cruz",
    "phone": 9885397342,
    "address": "177 River Street",
    "city": "Bakersville",
    "state": "Florida",
    "zip": 6111
  },
  {
    "name": "Hendricks Noble",
    "phone": 8247062148,
    "address": "536 Grant Avenue",
    "city": "Day",
    "state": "Marshall Islands",
    "zip": 7378
  },
  {
    "name": "Magdalena Tillman",
    "phone": 2964209006,
    "address": "821 Neptune Avenue",
    "city": "Waiohinu",
    "state": "Missouri",
    "zip": 1473
  },
  {
    "name": "Lottie Camacho",
    "phone": 7347610914,
    "address": "351 Mill Avenue",
    "city": "Ruckersville",
    "state": "Massachusetts",
    "zip": 513
  },
  {
    "name": "Sweeney Calhoun",
    "phone": 1905927320,
    "address": "281 Havens Place",
    "city": "Graniteville",
    "state": "West Virginia",
    "zip": 815
  },
  {
    "name": "Frederick Welch",
    "phone": 4670852123,
    "address": "473 Devon Avenue",
    "city": "Haring",
    "state": "Nebraska",
    "zip": 3488
  },
  {
    "name": "Hillary Greene",
    "phone": 3932184095,
    "address": "842 Crescent Street",
    "city": "Saddlebrooke",
    "state": "Kentucky",
    "zip": 7653
  },
  {
    "name": "Rosanna Hawkins",
    "phone": 2568105132,
    "address": "902 Ira Court",
    "city": "Machias",
    "state": "Georgia",
    "zip": 7172
  },
  {
    "name": "Lakeisha Blevins",
    "phone": 5145111549,
    "address": "505 Herkimer Court",
    "city": "Fairacres",
    "state": "Mississippi",
    "zip": 6157
  },
  {
    "name": "Rowland Sparks",
    "phone": 6464504948,
    "address": "895 Canda Avenue",
    "city": "Hatteras",
    "state": "Montana",
    "zip": 7001
  },
  {
    "name": "Stephanie Lang",
    "phone": 3891086422,
    "address": "300 Gaylord Drive",
    "city": "Cazadero",
    "state": "Alaska",
    "zip": 8441
  },
  {
    "name": "Jodi Compton",
    "phone": 2797790732,
    "address": "628 Columbia Street",
    "city": "Norwood",
    "state": "Hawaii",
    "zip": 4586
  },
  {
    "name": "Evangeline Fuller",
    "phone": 7933648965,
    "address": "861 Lewis Avenue",
    "city": "Brownlee",
    "state": "California",
    "zip": 109
  },
  {
    "name": "Alicia Brady",
    "phone": 8209285925,
    "address": "273 Box Street",
    "city": "Florence",
    "state": "Delaware",
    "zip": 8183
  },
  {
    "name": "Butler Pena",
    "phone": 4864431757,
    "address": "284 Hendrickson Street",
    "city": "Hebron",
    "state": "New Mexico",
    "zip": 1104
  },
  {
    "name": "Serrano Mays",
    "phone": 2288542695,
    "address": "305 Dekalb Avenue",
    "city": "Sussex",
    "state": "Indiana",
    "zip": 9740
  },
  {
    "name": "Grimes Mcgee",
    "phone": 3866772499,
    "address": "172 Truxton Street",
    "city": "Allamuchy",
    "state": "Palau",
    "zip": 9830
  },
  {
    "name": "Lydia Waters",
    "phone": 9099944725,
    "address": "176 Hazel Court",
    "city": "Mayfair",
    "state": "Minnesota",
    "zip": 5686
  },
  {
    "name": "Franklin Gay",
    "phone": 6927781577,
    "address": "382 Bergen Court",
    "city": "Vale",
    "state": "Oklahoma",
    "zip": 8035
  },
  {
    "name": "Jensen Morgan",
    "phone": 8711041123,
    "address": "192 Beadel Street",
    "city": "Vaughn",
    "state": "Wyoming",
    "zip": 8912
  },
  {
    "name": "Kirsten Baldwin",
    "phone": 3048719241,
    "address": "904 Centre Street",
    "city": "Southview",
    "state": "Ohio",
    "zip": 8204
  },
  {
    "name": "Howard Alexander",
    "phone": 2431975470,
    "address": "797 Seagate Avenue",
    "city": "Craig",
    "state": "Washington",
    "zip": 7888
  },
  {
    "name": "Mallory Wolf",
    "phone": 7957402526,
    "address": "827 Hale Avenue",
    "city": "Longoria",
    "state": "Federated States Of Micronesia",
    "zip": 9165
  },
  {
    "name": "Bradshaw Freeman",
    "phone": 6447387025,
    "address": "591 Brightwater Avenue",
    "city": "Sutton",
    "state": "Idaho",
    "zip": 7794
  },
  {
    "name": "Johnson Nieves",
    "phone": 6057329013,
    "address": "398 Lott Avenue",
    "city": "Hilltop",
    "state": "Arizona",
    "zip": 4760
  },
  {
    "name": "Lowe Knight",
    "phone": 8167841229,
    "address": "308 Trucklemans Lane",
    "city": "Ripley",
    "state": "District Of Columbia",
    "zip": 5363
  },
  {
    "name": "Gayle Mcclure",
    "phone": 1947568788,
    "address": "568 Terrace Place",
    "city": "Riceville",
    "state": "Virginia",
    "zip": 7817
  },
  {
    "name": "Hamilton Hernandez",
    "phone": 1731438025,
    "address": "179 Degraw Street",
    "city": "Holcombe",
    "state": "North Carolina",
    "zip": 2573
  },
  {
    "name": "Patti Scott",
    "phone": 2604508561,
    "address": "469 Micieli Place",
    "city": "Chicopee",
    "state": "Michigan",
    "zip": 6426
  },
  {
    "name": "Sandra Schultz",
    "phone": 7992702751,
    "address": "144 Woodpoint Road",
    "city": "Walland",
    "state": "New York",
    "zip": 9958
  },
  {
    "name": "Huffman Cole",
    "phone": 6430047000,
    "address": "811 Thames Street",
    "city": "Idamay",
    "state": "American Samoa",
    "zip": 2630
  },
  {
    "name": "Mathis Malone",
    "phone": 5497453018,
    "address": "166 Ludlam Place",
    "city": "Mathews",
    "state": "Illinois",
    "zip": 880
  },
  {
    "name": "Mack Hancock",
    "phone": 4714204966,
    "address": "604 Prescott Place",
    "city": "Hiwasse",
    "state": "Colorado",
    "zip": 793
  },
  {
    "name": "Pansy David",
    "phone": 8412451889,
    "address": "410 Greenwood Avenue",
    "city": "Loyalhanna",
    "state": "Guam",
    "zip": 4941
  },
  {
    "name": "Justine Mendez",
    "phone": 6735227828,
    "address": "758 Harwood Place",
    "city": "Loomis",
    "state": "Texas",
    "zip": 5722
  },
  {
    "name": "Ester Donaldson",
    "phone": 3590624815,
    "address": "986 Cortelyou Road",
    "city": "Crown",
    "state": "Northern Mariana Islands",
    "zip": 8232
  },
  {
    "name": "Tyson Moore",
    "phone": 7825185070,
    "address": "610 Rapelye Street",
    "city": "Masthope",
    "state": "Maine",
    "zip": 6875
  },
  {
    "name": "Ruthie Payne",
    "phone": 3283650888,
    "address": "853 Withers Street",
    "city": "Glenville",
    "state": "Connecticut",
    "zip": 5107
  },
  {
    "name": "Jenifer Davis",
    "phone": 9099148311,
    "address": "986 Colonial Court",
    "city": "Sattley",
    "state": "Wisconsin",
    "zip": 705
  },
  {
    "name": "Justice Lopez",
    "phone": 6515735290,
    "address": "388 Vanderbilt Street",
    "city": "Sunnyside",
    "state": "Iowa",
    "zip": 778
  },
  {
    "name": "James Burks",
    "phone": 6663034181,
    "address": "724 Beverly Road",
    "city": "Sims",
    "state": "Tennessee",
    "zip": 2799
  },
  {
    "name": "Farrell Lloyd",
    "phone": 5390599372,
    "address": "606 Greenpoint Avenue",
    "city": "Homestead",
    "state": "Vermont",
    "zip": 9595
  },
  {
    "name": "Natalie Pickett",
    "phone": 8953841412,
    "address": "876 Ivan Court",
    "city": "Wakarusa",
    "state": "Arkansas",
    "zip": 8374
  },
  {
    "name": "Ballard Maddox",
    "phone": 7598242831,
    "address": "899 Kenmore Court",
    "city": "Hillsboro",
    "state": "South Carolina",
    "zip": 8733
  },
  {
    "name": "Daphne Willis",
    "phone": 5785324579,
    "address": "203 Charles Place",
    "city": "Salvo",
    "state": "Pennsylvania",
    "zip": 2951
  },
  {
    "name": "Francis Ellison",
    "phone": 2060957559,
    "address": "438 Cedar Street",
    "city": "Sabillasville",
    "state": "Maryland",
    "zip": 8686
  },
  {
    "name": "Galloway Reyes",
    "phone": 9349712097,
    "address": "419 Leonard Street",
    "city": "Boyd",
    "state": "Virgin Islands",
    "zip": 2682
  },
  {
    "name": "Roach Trujillo",
    "phone": 7315166810,
    "address": "810 Newkirk Avenue",
    "city": "Orin",
    "state": "Kansas",
    "zip": 4190
  },
  {
    "name": "Mclaughlin Steele",
    "phone": 6188389570,
    "address": "470 Homecrest Court",
    "city": "Bethany",
    "state": "Oregon",
    "zip": 9009
  },
  {
    "name": "Kathleen Coffey",
    "phone": 6756350774,
    "address": "674 Miami Court",
    "city": "Canby",
    "state": "New Jersey",
    "zip": 4812
  },
  {
    "name": "Gardner Brooks",
    "phone": 1504719891,
    "address": "614 Imlay Street",
    "city": "Zeba",
    "state": "Nevada",
    "zip": 5051
  },
  {
    "name": "Irma Hendrix",
    "phone": 1035154377,
    "address": "459 Pacific Street",
    "city": "Fannett",
    "state": "New Hampshire",
    "zip": 1530
  },
  {
    "name": "Kaitlin Hardin",
    "phone": 7501260309,
    "address": "790 Corbin Place",
    "city": "Chamberino",
    "state": "Rhode Island",
    "zip": 801
  },
  {
    "name": "Briana Andrews",
    "phone": 5099317052,
    "address": "881 Lenox Road",
    "city": "Alderpoint",
    "state": "South Dakota",
    "zip": 2886
  },
  {
    "name": "Rosie Soto",
    "phone": 7683720261,
    "address": "285 Neptune Court",
    "city": "Tyhee",
    "state": "Louisiana",
    "zip": 8982
  },
  {
    "name": "Renee Munoz",
    "phone": 4194761983,
    "address": "287 Grove Place",
    "city": "Accoville",
    "state": "Alabama",
    "zip": 8256
  },
  {
    "name": "Wall Cummings",
    "phone": 1290795684,
    "address": "768 Wilson Avenue",
    "city": "Herald",
    "state": "Puerto Rico",
    "zip": 2569
  },
  {
    "name": "Eleanor Spencer",
    "phone": 1974366969,
    "address": "653 Heath Place",
    "city": "Lund",
    "state": "North Dakota",
    "zip": 9633
  },
  {
    "name": "Gross Flowers",
    "phone": 5543145938,
    "address": "870 Tudor Terrace",
    "city": "Smock",
    "state": "Florida",
    "zip": 7924
  },
  {
    "name": "Ingrid Marks",
    "phone": 1782887639,
    "address": "278 Malta Street",
    "city": "Dana",
    "state": "Marshall Islands",
    "zip": 5026
  },
  {
    "name": "Maggie Albert",
    "phone": 7401394307,
    "address": "696 Ferry Place",
    "city": "Laurelton",
    "state": "Missouri",
    "zip": 7771
  },
  {
    "name": "Marisol Ayers",
    "phone": 8954021017,
    "address": "383 Dupont Street",
    "city": "Frierson",
    "state": "Massachusetts",
    "zip": 3769
  },
  {
    "name": "Sylvia Hodge",
    "phone": 2139892700,
    "address": "273 Schenck Place",
    "city": "Brenton",
    "state": "West Virginia",
    "zip": 9432
  },
  {
    "name": "Louella Gentry",
    "phone": 4498034739,
    "address": "490 Lake Avenue",
    "city": "Murillo",
    "state": "Nebraska",
    "zip": 6263
  },
  {
    "name": "Michael Diaz",
    "phone": 2398142830,
    "address": "842 Garden Street",
    "city": "Guilford",
    "state": "Kentucky",
    "zip": 4919
  },
  {
    "name": "Dianne Green",
    "phone": 8910169546,
    "address": "377 Belvidere Street",
    "city": "Hegins",
    "state": "Georgia",
    "zip": 1703
  },
  {
    "name": "Rasmussen Webster",
    "phone": 7939940173,
    "address": "884 Duryea Place",
    "city": "Winfred",
    "state": "Mississippi",
    "zip": 9270
  },
  {
    "name": "Bridgette Mcguire",
    "phone": 7147887636,
    "address": "765 Waldorf Court",
    "city": "Wheatfields",
    "state": "Montana",
    "zip": 1331
  },
  {
    "name": "Workman Jackson",
    "phone": 2950349469,
    "address": "760 Madison Street",
    "city": "Albrightsville",
    "state": "Alaska",
    "zip": 7947
  },
  {
    "name": "Velma Cross",
    "phone": 8362496878,
    "address": "343 Evergreen Avenue",
    "city": "Ferney",
    "state": "Hawaii",
    "zip": 4159
  },
  {
    "name": "Hester Graves",
    "phone": 9522397645,
    "address": "718 Borinquen Pl",
    "city": "Fillmore",
    "state": "California",
    "zip": 5581
  },
  {
    "name": "Cline Bass",
    "phone": 5979336173,
    "address": "402 Diamond Street",
    "city": "Woodlands",
    "state": "Delaware",
    "zip": 2908
  },
  {
    "name": "Osborne Cotton",
    "phone": 4660171558,
    "address": "360 Aurelia Court",
    "city": "Deercroft",
    "state": "New Mexico",
    "zip": 6188
  },
  {
    "name": "Wendy Glenn",
    "phone": 1622218347,
    "address": "546 Cleveland Street",
    "city": "Independence",
    "state": "Indiana",
    "zip": 556
  },
  {
    "name": "Janet Barlow",
    "phone": 5610469756,
    "address": "213 Dearborn Court",
    "city": "Montura",
    "state": "Palau",
    "zip": 2233
  },
  {
    "name": "Mcguire Cleveland",
    "phone": 4564440869,
    "address": "573 Love Lane",
    "city": "Gibbsville",
    "state": "Minnesota",
    "zip": 1332
  },
  {
    "name": "Crystal Riggs",
    "phone": 4535899970,
    "address": "453 Berry Street",
    "city": "Allensworth",
    "state": "Oklahoma",
    "zip": 4866
  },
  {
    "name": "Becky Olsen",
    "phone": 3663647610,
    "address": "356 Hendrix Street",
    "city": "Hayes",
    "state": "Wyoming",
    "zip": 8425
  },
  {
    "name": "Janis Hayes",
    "phone": 9863011831,
    "address": "269 Union Avenue",
    "city": "Mooresburg",
    "state": "Ohio",
    "zip": 2542
  },
  {
    "name": "Gilbert Case",
    "phone": 1915465558,
    "address": "645 Anthony Street",
    "city": "Galesville",
    "state": "Washington",
    "zip": 9006
  },
  {
    "name": "Baxter Frost",
    "phone": 7816620909,
    "address": "821 Langham Street",
    "city": "Whitewater",
    "state": "Federated States Of Micronesia",
    "zip": 2989
  },
  {
    "name": "Tamera Knox",
    "phone": 1724486158,
    "address": "707 Bancroft Place",
    "city": "Kent",
    "state": "Idaho",
    "zip": 739
  },
  {
    "name": "Sosa Sanchez",
    "phone": 5484132582,
    "address": "833 Roosevelt Court",
    "city": "Cowiche",
    "state": "Arizona",
    "zip": 2320
  },
  {
    "name": "Concepcion Fletcher",
    "phone": 7264110865,
    "address": "751 Chauncey Street",
    "city": "Cucumber",
    "state": "District Of Columbia",
    "zip": 4231
  },
  {
    "name": "Wright Burch",
    "phone": 9304984320,
    "address": "736 Seaview Court",
    "city": "Bethpage",
    "state": "Virginia",
    "zip": 4536
  },
  {
    "name": "Paula Obrien",
    "phone": 1482609133,
    "address": "980 Throop Avenue",
    "city": "Elwood",
    "state": "North Carolina",
    "zip": 7256
  },
  {
    "name": "Alana Deleon",
    "phone": 6001658897,
    "address": "790 Hamilton Avenue",
    "city": "Somerset",
    "state": "Michigan",
    "zip": 1636
  },
  {
    "name": "May Chang",
    "phone": 6242826794,
    "address": "521 Jewel Street",
    "city": "Valle",
    "state": "New York",
    "zip": 2045
  },
  {
    "name": "Stuart Peters",
    "phone": 7605314382,
    "address": "833 Empire Boulevard",
    "city": "Limestone",
    "state": "American Samoa",
    "zip": 2079
  },
  {
    "name": "Dollie Gray",
    "phone": 9231983768,
    "address": "906 Howard Alley",
    "city": "Austinburg",
    "state": "Illinois",
    "zip": 6045
  },
  {
    "name": "Bowen Jimenez",
    "phone": 5479498609,
    "address": "278 Bragg Court",
    "city": "Jacksonburg",
    "state": "Colorado",
    "zip": 1357
  },
  {
    "name": "Christine Neal",
    "phone": 8916026233,
    "address": "560 Rutland Road",
    "city": "Loveland",
    "state": "Guam",
    "zip": 8212
  },
  {
    "name": "Jessie Decker",
    "phone": 8295373896,
    "address": "257 Barwell Terrace",
    "city": "Tedrow",
    "state": "Texas",
    "zip": 7854
  },
  {
    "name": "Cobb Fitzpatrick",
    "phone": 8547850794,
    "address": "293 Caton Place",
    "city": "Churchill",
    "state": "Northern Mariana Islands",
    "zip": 2705
  },
  {
    "name": "Julianne Best",
    "phone": 8519398135,
    "address": "415 McDonald Avenue",
    "city": "Dupuyer",
    "state": "Maine",
    "zip": 2181
  },
  {
    "name": "Mcconnell Robinson",
    "phone": 8431005524,
    "address": "459 Bridge Street",
    "city": "Matheny",
    "state": "Connecticut",
    "zip": 2130
  },
  {
    "name": "Mattie Flynn",
    "phone": 3048993150,
    "address": "371 Clinton Street",
    "city": "Bladensburg",
    "state": "Wisconsin",
    "zip": 7379
  },
  {
    "name": "Mercedes Goodman",
    "phone": 8579914539,
    "address": "520 Lincoln Avenue",
    "city": "Shasta",
    "state": "Iowa",
    "zip": 3561
  },
  {
    "name": "Miles Kennedy",
    "phone": 7354717042,
    "address": "559 Woodside Avenue",
    "city": "Cuylerville",
    "state": "Tennessee",
    "zip": 8659
  },
  {
    "name": "Irene Johnston",
    "phone": 6408586021,
    "address": "930 Linden Boulevard",
    "city": "Snowville",
    "state": "Vermont",
    "zip": 1629
  },
  {
    "name": "Keith Williamson",
    "phone": 7199984971,
    "address": "405 Vanderveer Place",
    "city": "Jessie",
    "state": "Arkansas",
    "zip": 2981
  },
  {
    "name": "Mandy Finch",
    "phone": 8869888496,
    "address": "830 Vandam Street",
    "city": "Eagleville",
    "state": "South Carolina",
    "zip": 4655
  },
  {
    "name": "Valencia Velez",
    "phone": 2266807322,
    "address": "797 Butler Place",
    "city": "Nutrioso",
    "state": "Pennsylvania",
    "zip": 9211
  },
  {
    "name": "Robin Odonnell",
    "phone": 9535770394,
    "address": "831 Independence Avenue",
    "city": "Monument",
    "state": "Maryland",
    "zip": 1734
  },
  {
    "name": "Byers Gallagher",
    "phone": 1227067806,
    "address": "609 Utica Avenue",
    "city": "Gardiner",
    "state": "Virgin Islands",
    "zip": 7520
  },
  {
    "name": "Carter Ochoa",
    "phone": 5965697882,
    "address": "797 Falmouth Street",
    "city": "Gorham",
    "state": "Kansas",
    "zip": 425
  },
  {
    "name": "Mann Caldwell",
    "phone": 6759160642,
    "address": "347 Aberdeen Street",
    "city": "Century",
    "state": "Oregon",
    "zip": 4636
  },
  {
    "name": "Rosetta Haynes",
    "phone": 5975742247,
    "address": "885 Lawn Court",
    "city": "Ezel",
    "state": "New Jersey",
    "zip": 7126
  },
  {
    "name": "Bernice Rice",
    "phone": 9710523411,
    "address": "708 Varet Street",
    "city": "Ada",
    "state": "Nevada",
    "zip": 8835
  },
  {
    "name": "Hester Osborn",
    "phone": 9626945345,
    "address": "381 Burnett Street",
    "city": "Barstow",
    "state": "New Hampshire",
    "zip": 1636
  },
  {
    "name": "Blair Castaneda",
    "phone": 8274884090,
    "address": "933 Williams Court",
    "city": "Edgewater",
    "state": "Rhode Island",
    "zip": 1205
  },
  {
    "name": "Hopkins Pratt",
    "phone": 9503734771,
    "address": "594 Cobek Court",
    "city": "Dubois",
    "state": "South Dakota",
    "zip": 4703
  },
  {
    "name": "Cote Clark",
    "phone": 2610283273,
    "address": "938 Desmond Court",
    "city": "Bodega",
    "state": "Louisiana",
    "zip": 2981
  },
  {
    "name": "Etta Farley",
    "phone": 5177552483,
    "address": "177 Ingraham Street",
    "city": "Crawfordsville",
    "state": "Alabama",
    "zip": 488
  },
  {
    "name": "Jerry Griffin",
    "phone": 7542636136,
    "address": "883 Brown Street",
    "city": "Oneida",
    "state": "Puerto Rico",
    "zip": 2487
  },
  {
    "name": "Susan Robertson",
    "phone": 4543857354,
    "address": "418 Hausman Street",
    "city": "Norvelt",
    "state": "North Dakota",
    "zip": 3826
  }
]